[{"OBJECT_NAME":"FLOCK 4G-21","OBJECT_ID":"2025-009AU","EPOCH":"2026-03-09T04:40:37.351200","MEAN_MOTION":15.28381075,"ECCENTRICITY":4.655e-5,"INCLINATION":97.4032,"RA_OF_ASC_NODE":151.1274,"ARG_OF_PERICENTER":329.5782,"MEAN_ANOMALY":30.5431,"EPHEMERIS_TYPE":0,"CLASSIFICATION_TYPE":"U","NORAD_CAT_ID":62651,"ELEMENT_SET_NO":999,"REV_AT_EPOCH":6367,"BSTAR":0.00049618643,"MEAN_MOTION_DOT":0.00013648,"MEAN_MOTION_DDOT":0},{"OBJECT_NAME":"STARLINK-36113","OBJECT_ID":"2025-288Z","EPOCH":"2026-03-09T05:52:53.214240","MEAN_MOTION":15.27560673,"ECCENTRICITY":0.00010413,"INCLINATION":42.9997,"RA_OF_ASC_NODE":25.588,"ARG_OF_PERICENTER":268.0745,"MEAN_ANOMALY":91.9988,"EPHEMERIS_TYPE":0,"CLASSIFICATION_TYPE":"U","NORAD_CAT_ID":66982,"ELEMENT_SET_NO":999,"REV_AT_EPOCH":1522,"BSTAR":0.0010332646,"MEAN_MOTION_DOT":0.00028263,"MEAN_MOTION_DDOT":0}]
